     2.10           N: GPS NAV DATA                         RINEX VERSION / TYPE
Convert v1.8.0                          07-Jun-16 18:56     PGM / RUN BY / DATE 
Ionosphere parameters A0-A3 unknown                         COMMENT             
Ionosphere parameters B0-B3 unknown                         COMMENT             
Delta-UTC unknown                                           COMMENT             
Leap Seconds unknown                                        COMMENT             
                                                            END OF HEADER       
16 16 04 02 16 00 00.0 -.274027697742D-04  .284217094304D-11  .000000000000D+00
     .300000000000D+01  .675937500000D+02  .389480509141D-08 -.108773216336D+01
     .347942113876D-05  .873516115826D-02  .899471342564D-05  .515373628044D+04
     .576000000000D+06 -.160187482834D-06  .309349214560D+01 -.819563865662D-07
     .991110498450D+00  .223250000000D+03  .352910101814D+00 -.764174688086D-08
     .250367571671D-09  .100000000000D+01  .189000000000D+04  .000000000000D+00
     .000000000000D+00  .000000000000D+00 -.102445483208D-07  .300000000000D+01
     .569766000000D+06  .000000000000D+00                                      
07 16 04 02 16 00 00.0  .462114810944D-03 -.193267624127D-11  .000000000000D+00
     .300000000000D+01  .553125000000D+01  .442947021950D-08  .143281224192D+01
     .558793544769D-07  .920371513348D-02  .923871994019D-05  .515366034126D+04
     .576000000000D+06  .126659870148D-06  .199998560174D+01 -.651925802231D-07
     .966731539198D+00  .202625000000D+03 -.268124330841D+01 -.790497213096D-08
    -.171792870148D-09  .100000000000D+01  .189000000000D+04  .000000000000D+00
     .100000000000D+01  .000000000000D+00 -.111758708954D-07  .300000000000D+01
     .569766000000D+06  .000000000000D+00                                      
07 16 04 02 16 00 00.0  .462114810944D-03 -.193267624127D-11  .000000000000D+00
     .300000000000D+01  .553125000000D+01  .442947021950D-08  .143281224192D+01
     .558793544769D-07  .920371513348D-02  .923871994019D-05  .515366034126D+04
     .576000000000D+06  .126659870148D-06  .199998560174D+01 -.651925802231D-07
     .966731539198D+00  .202625000000D+03 -.268124330841D+01 -.790497213096D-08
    -.171792870148D-09  .100000000000D+01  .189000000000D+04  .000000000000D+00
     .100000000000D+01  .000000000000D+00 -.111758708954D-07  .300000000000D+01
     .569826000000D+06  .000000000000D+00                                      
26 16 04 02 16 00 00.0 -.316387508065D-03 -.139834810398D-10  .000000000000D+00
     .300000000000D+01  .670937500000D+02  .456376152756D-08 -.316960417302D+00
     .352226197720D-05  .992985907942D-03  .844523310661D-05  .515373858261D+04
     .576000000000D+06 -.521540641785D-07  .301649975309D+01 -.149011611938D-07
     .960834512031D+00  .217562500000D+03  .697624480117D-01 -.807533637017D-08
     .197151069276D-09  .100000000000D+01  .189000000000D+04  .000000000000D+00
     .000000000000D+00  .000000000000D+00  .698491930962D-08  .300000000000D+01
     .569826000000D+06  .000000000000D+00                                      
16 16 04 02 16 00 00.0 -.274027697742D-04  .284217094304D-11  .000000000000D+00
     .300000000000D+01  .675937500000D+02  .389480509141D-08 -.108773216336D+01
     .347942113876D-05  .873516115826D-02  .899471342564D-05  .515373628044D+04
     .576000000000D+06 -.160187482834D-06  .309349214560D+01 -.819563865662D-07
     .991110498450D+00  .223250000000D+03  .352910101814D+00 -.764174688086D-08
     .250367571671D-09  .100000000000D+01  .189000000000D+04  .000000000000D+00
     .000000000000D+00  .000000000000D+00 -.102445483208D-07  .300000000000D+01
     .569826000000D+06  .000000000000D+00                                      
04 16 04 02 16 00 00.0 -.253738835454D-03 -.795807864051D-12  .000000000000D+00
     .300000000000D+01  .673437500000D+02  .531379276937D-08 -.933663185951D+00
     .342354178429D-05  .835991196800D-02  .878423452377D-05  .515363225365D+04
     .576000000000D+06 -.147148966789D-06  .304588015131D+01 -.167638063431D-06
     .983625230865D+00  .222093750000D+03  .865195217094D+00 -.777460955798D-08
     .213223167315D-09  .100000000000D+01  .189000000000D+04  .000000000000D+00
     .200000000000D+01  .100000000000D+01 -.190921127796D-07  .300000000000D+01
     .569856000000D+06  .000000000000D+00                                      
07 16 04 02 16 00 00.0  .462114810944D-03 -.193267624127D-11  .000000000000D+00
     .300000000000D+01  .553125000000D+01  .442947021950D-08  .143281224192D+01
     .558793544769D-07  .920371513348D-02  .923871994019D-05  .515366034126D+04
     .576000000000D+06  .126659870148D-06  .199998560174D+01 -.651925802231D-07
     .966731539198D+00  .202625000000D+03 -.268124330841D+01 -.790497213096D-08
    -.171792870148D-09  .100000000000D+01  .189000000000D+04  .000000000000D+00
     .100000000000D+01  .000000000000D+00 -.111758708954D-07  .300000000000D+01
     .569856000000D+06  .000000000000D+00                                      
26 16 04 02 16 00 00.0 -.316387508065D-03 -.139834810398D-10  .000000000000D+00
     .300000000000D+01  .670937500000D+02  .456376152756D-08 -.316960417302D+00
     .352226197720D-05  .992985907942D-03  .844523310661D-05  .515373858261D+04
     .576000000000D+06 -.521540641785D-07  .301649975309D+01 -.149011611938D-07
     .960834512031D+00  .217562500000D+03  .697624480117D-01 -.807533637017D-08
     .197151069276D-09  .100000000000D+01  .189000000000D+04  .000000000000D+00
     .000000000000D+00  .000000000000D+00  .698491930962D-08  .300000000000D+01
     .569856000000D+06  .000000000000D+00                                      
16 16 04 02 16 00 00.0 -.274027697742D-04  .284217094304D-11  .000000000000D+00
     .300000000000D+01  .675937500000D+02  .389480509141D-08 -.108773216336D+01
     .347942113876D-05  .873516115826D-02  .899471342564D-05  .515373628044D+04
     .576000000000D+06 -.160187482834D-06  .309349214560D+01 -.819563865662D-07
     .991110498450D+00  .223250000000D+03  .352910101814D+00 -.764174688086D-08
     .250367571671D-09  .100000000000D+01  .189000000000D+04  .000000000000D+00
     .000000000000D+00  .000000000000D+00 -.102445483208D-07  .300000000000D+01
     .569856000000D+06  .000000000000D+00                                      
04 16 04 02 16 00 00.0 -.253738835454D-03 -.795807864051D-12  .000000000000D+00
     .300000000000D+01  .673437500000D+02  .531379276937D-08 -.933663185951D+00
     .342354178429D-05  .835991196800D-02  .878423452377D-05  .515363225365D+04
     .576000000000D+06 -.147148966789D-06  .304588015131D+01 -.167638063431D-06
     .983625230865D+00  .222093750000D+03  .865195217094D+00 -.777460955798D-08
     .213223167315D-09  .100000000000D+01  .189000000000D+04  .000000000000D+00
     .200000000000D+01  .100000000000D+01 -.190921127796D-07  .300000000000D+01
     .569886000000D+06  .000000000000D+00                                      
07 16 04 02 16 00 00.0  .462114810944D-03 -.193267624127D-11  .000000000000D+00
     .300000000000D+01  .553125000000D+01  .442947021950D-08  .143281224192D+01
     .558793544769D-07  .920371513348D-02  .923871994019D-05  .515366034126D+04
     .576000000000D+06  .126659870148D-06  .199998560174D+01 -.651925802231D-07
     .966731539198D+00  .202625000000D+03 -.268124330841D+01 -.790497213096D-08
    -.171792870148D-09  .100000000000D+01  .189000000000D+04  .000000000000D+00
     .100000000000D+01  .000000000000D+00 -.111758708954D-07  .300000000000D+01
     .569886000000D+06  .000000000000D+00                                      
26 16 04 02 16 00 00.0 -.316387508065D-03 -.139834810398D-10  .000000000000D+00
     .300000000000D+01  .670937500000D+02  .456376152756D-08 -.316960417302D+00
     .352226197720D-05  .992985907942D-03  .844523310661D-05  .515373858261D+04
     .576000000000D+06 -.521540641785D-07  .301649975309D+01 -.149011611938D-07
     .960834512031D+00  .217562500000D+03  .697624480117D-01 -.807533637017D-08
     .197151069276D-09  .100000000000D+01  .189000000000D+04  .000000000000D+00
     .000000000000D+00  .000000000000D+00  .698491930962D-08  .300000000000D+01
     .569886000000D+06  .000000000000D+00                                      
16 16 04 02 16 00 00.0 -.274027697742D-04  .284217094304D-11  .000000000000D+00
     .300000000000D+01  .675937500000D+02  .389480509141D-08 -.108773216336D+01
     .347942113876D-05  .873516115826D-02  .899471342564D-05  .515373628044D+04
     .576000000000D+06 -.160187482834D-06  .309349214560D+01 -.819563865662D-07
     .991110498450D+00  .223250000000D+03  .352910101814D+00 -.764174688086D-08
     .250367571671D-09  .100000000000D+01  .189000000000D+04  .000000000000D+00
     .000000000000D+00  .000000000000D+00 -.102445483208D-07  .300000000000D+01
     .569886000000D+06  .000000000000D+00                                      
04 16 04 02 16 00 00.0 -.253738835454D-03 -.795807864051D-12  .000000000000D+00
     .300000000000D+01  .673437500000D+02  .531379276937D-08 -.933663185951D+00
     .342354178429D-05  .835991196800D-02  .878423452377D-05  .515363225365D+04
     .576000000000D+06 -.147148966789D-06  .304588015131D+01 -.167638063431D-06
     .983625230865D+00  .222093750000D+03  .865195217094D+00 -.777460955798D-08
     .213223167315D-09  .100000000000D+01  .189000000000D+04  .000000000000D+00
     .200000000000D+01  .100000000000D+01 -.190921127796D-07  .300000000000D+01
     .569916000000D+06  .000000000000D+00                                      
